     2.10           N: GPS NAV DATA                         RINEX VERSION / TYPE
teqc  2013Mar15                         20150102 00:05:24UTCPGM / RUN BY / DATE
    1.3970D-08 -7.4510D-09 -5.9600D-08  1.1920D-07          ION ALPHA
    1.2700D+05 -1.9660D+05  6.5540D+04  2.6210D+05          ION BETA
    0.000000000000D+00 8.881784197000D-15   503808     1825 DELTA-UTC: A0,A1,T,W
    16                                                      LEAP SECONDS
MSXP|IAx86-PII|bcc32 5.0|MSWin95->XP|486/DX+                COMMENT
     2.10           N:  GPS NAV DATA                        COMMENT
JPS2RIN V1.2.25     JAVAD GNSS          01-Jan-2015 00:58   COMMENT
                                                            END OF HEADER
31 14 12 31 16  0  0.0 3.263885155320D-04-6.821210263300D-13 0.000000000000D+00
    6.900000000000D+01 3.606250000000D+01 4.336252050870D-09-2.299049422420D+00
    1.970678567890D-06 8.310813922440D-03 2.950429916380D-06 5.153700046540D+03
    3.168000000000D+05-1.098960638050D-07-2.412743178930D+00 6.146728992460D-08
    9.766874998690D-01 3.346562500000D+02-5.861806696690D-01-8.188198214180D-09
    1.357199389950D-11 1.000000000000D+00 1.825000000000D+03 0.000000000000D+00
    2.000000000000D+00 0.000000000000D+00-1.350417733190D-08 6.900000000000D+01
    3.168000000000D+05
32 15  1  1  0  0  0.0-2.579120919110D-04 8.640199666840D-12 0.000000000000D+00
    5.600000000000D+01-2.040625000000D+01 4.821986569380D-09 2.434562002290D+00
   -1.011416316030D-06 1.137191499580D-02 9.486451745030D-06 5.153596923830D+03
    3.456000000000D+05-1.918524503710D-07 1.827514794320D+00 1.173466444020D-07
    9.467845165980D-01 1.877187500000D+02-1.110583037380D-03-8.038549123550D-09
   -4.818057834310D-10 1.000000000000D+00 1.825000000000D+03 0.000000000000D+00
    2.000000000000D+00 0.000000000000D+00-3.259629011150D-09 5.600000000000D+01
    3.456000000000D+05
31 15  1  1  2  0  0.0 3.263596445320D-04-6.821210263300D-13 0.000000000000D+00
    3.100000000000D+01 5.343750000000D+01 4.486615456970D-09 2.951516735980D+00
    2.907589077950D-06 8.309831144290D-03 2.514570951460D-06 5.153702119830D+03
    3.528000000000D+05-1.024454832080D-07-2.413042034080D+00 1.508742570880D-07
    9.766879197260D-01 3.406250000000D+02-5.859256274570D-01-8.198555788470D-09
    9.714690370130D-11 1.000000000000D+00 1.825000000000D+03 0.000000000000D+00
    2.000000000000D+00 0.000000000000D+00-1.350417733190D-08 3.100000000000D+01
    3.528000000000D+05
29 15  1  1  2  0  0.0 5.831141024830D-04 2.273736754430D-12 0.000000000000D+00
    5.900000000000D+01-3.243750000000D+01 4.041954077900D-09 2.323830877250D+00
   -1.795589923860D-06 1.218384946700D-03 1.040287315850D-05 5.153581123350D+03
    3.528000000000D+05-7.636845111850D-08-2.967911116150D-01 5.774199962620D-08
    9.720765269120D-01 1.845937500000D+02-8.712155141260D-01-7.685320124430D-09
    3.053698627380D-10 1.000000000000D+00 1.825000000000D+03 0.000000000000D+00
    2.000000000000D+00 0.000000000000D+00-9.778887033460D-09 5.900000000000D+01
    3.528000000000D+05
 9 15  1  1  1 59 44.0-4.230253398420D-05-1.045918907040D-11 0.000000000000D+00
    1.900000000000D+01 9.712500000000D+01 4.388754237800D-09-1.131115685110D+00
    4.855915904050D-06 2.580893924460D-04 1.049973070620D-05 5.153686939240D+03
    3.527840000000D+05 2.793967723850D-08 2.788179622480D+00-1.117587089540D-08
    9.588932767940D-01 1.774375000000D+02 2.461706928550D+00-7.927115910480D-09
    1.750072897560D-11 1.000000000000D+00 1.825000000000D+03 0.000000000000D+00
    2.000000000000D+00 0.000000000000D+00 4.656612873080D-10 1.900000000000D+01
    3.527840000000D+05
13 15  1  1  2  0  0.0-7.465621456500D-05-3.410605131650D-12 0.000000000000D+00
    1.400000000000D+01 9.440625000000D+01 3.988380417770D-09-2.520919455050D+00
    4.978850483890D-06 5.862767924550D-03 9.357929229740D-06 5.155890914920D+03
    3.528000000000D+05-1.676380634310D-08 2.900938602140D+00 6.891787052150D-08
    9.757683352740D-01 2.065625000000D+02 2.200391135630D+00-7.657818978900D-09
    5.928818387650D-11 1.000000000000D+00 1.825000000000D+03 0.000000000000D+00
    2.000000000000D+00 0.000000000000D+00-1.117587089540D-08 1.400000000000D+01
    3.528000000000D+05
23 15  1  1  1 59 44.0-7.850397378210D-05-2.728484105320D-12 0.000000000000D+00
    0.000000000000D+00 9.881250000000D+01 4.547332271780D-09-1.758133521320D+00
    4.835426807400D-06 9.704762022010D-03 1.034513115880D-05 5.153692493440D+03
    3.527840000000D+05 8.940696716310D-08 2.798131230970D+00-1.080334186550D-07
    9.499609111250D-01 1.721562500000D+02-2.717546095990D+00-7.956402844690D-09
    1.557207721090D-10 1.000000000000D+00 1.825000000000D+03 0.000000000000D+00
    2.000000000000D+00 0.000000000000D+00-2.002343535420D-08 0.000000000000D+00
    3.527840000000D+05
 2 15  1  1  4  0  0.0 5.392106249930D-04 2.273736754430D-12 0.000000000000D+00
    2.300000000000D+01 1.153125000000D+01 5.341651072640D-09-1.006362904290D+00
    7.282942533490D-07 1.412533514670D-02 5.789101123810D-06 5.153732105260D+03
    3.600000000000D+05 3.091990947720D-07 6.685381898820D-01 2.216547727580D-07
    9.402435319110D-01 2.572500000000D+02-2.348601705440D+00-8.460709565370D-09
    2.435815747220D-10 1.000000000000D+00 1.825000000000D+03 0.000000000000D+00
    2.000000000000D+00 0.000000000000D+00-2.048909664150D-08 2.300000000000D+01
    3.600000000000D+05
 5 15  1  1  4  0  0.0-2.987841144200D-04 4.888534022030D-12 0.000000000000D+00
    3.000000000000D+00-2.540625000000D+01 4.926633785500D-09 1.310740973850D+00
   -1.180917024610D-06 4.037145408800D-03 8.303672075270D-06 5.153742324830D+03
    3.600000000000D+05-1.005828380580D-07 1.738513784210D+00-1.862645149230D-08
    9.462855181670D-01 2.128125000000D+02 4.213287776460D-01-8.149625178890D-09
   -4.650193699230D-10 1.000000000000D+00 1.825000000000D+03 0.000000000000D+00
    2.000000000000D+00 0.000000000000D+00-1.071020960810D-08 3.000000000000D+00
    3.600000000000D+05
 6 15  1  1  4  0  0.0 3.994721919300D-05 9.208633855450D-12 0.000000000000D+00
    4.900000000000D+01 7.343750000000D+00 4.820557938440D-09 1.186286505430D+00
    3.669410943980D-07 5.037211813030D-04 6.269663572310D-06 5.153659111020D+03
    3.600000000000D+05 4.284083843230D-08 6.943836396600D-01 5.587935447690D-09
    9.615415169320D-01 2.604375000000D+02 2.351280595180D+00-8.139624762330D-09
    2.732256666600D-10 1.000000000000D+00 1.825000000000D+03 0.000000000000D+00
    2.000000000000D+00 0.000000000000D+00 4.656612873080D-09 4.900000000000D+01
    3.600000000000D+05
 8 15  1  1  4  0  0.0 1.694587990640D-05 1.136868377220D-13 0.000000000000D+00
    7.400000000000D+01 3.134375000000D+01 4.092313318420D-09-1.023276635010D+00
    1.823529601100D-06 1.476744050160D-02 2.261251211170D-06 5.152200010300D+03
    3.600000000000D+05 2.663582563400D-07-2.315974312280D+00-6.705522537230D-08
    9.952438242660D-01 3.520937500000D+02-2.676448075070D+00-8.126409926160D-09
    1.407201472730D-10 1.000000000000D+00 1.825000000000D+03 0.000000000000D+00
    3.000000000000D+00 6.300000000000D+01-4.656612873080D-09 7.400000000000D+01
    3.600000000000D+05
 9 15  1  1  3 59 44.0-4.237750545140D-05-1.045918907040D-11 0.000000000000D+00
    2.000000000000D+01 1.036875000000D+02 4.319108479630D-09-7.892305523350D-02
    5.286186933520D-06 2.578725107010D-04 1.051090657710D-05 5.153687171940D+03
    3.599840000000D+05 2.607703208920D-08 2.788122494070D+00 3.725290298460D-09
    9.588934640470D-01 1.723750000000D+02 2.459685133340D+00-7.925330121810D-09
    2.928693420410D-11 1.000000000000D+00 1.825000000000D+03 0.000000000000D+00
    2.000000000000D+00 0.000000000000D+00 4.656612873080D-10 2.000000000000D+01
    3.599840000000D+05
10 15  1  1  4  0  0.0-1.568230800330D-04-1.818989403550D-12 0.000000000000D+00
    9.700000000000D+01-2.693750000000D+01 5.087354765890D-09 1.642236226900D+00
   -1.458451151850D-06 1.448523101860D-02 8.750706911090D-06 5.153646974560D+03
    3.600000000000D+05-3.017485141750D-07 1.754483160350D+00-9.872019290920D-08
    9.410814460370D-01 2.039687500000D+02 9.140171777640D-01-8.348562036830D-09
   -5.043067206850D-10 1.000000000000D+00 1.825000000000D+03 0.000000000000D+00
    3.000000000000D+00 0.000000000000D+00-3.259629011150D-09 9.700000000000D+01
    3.600000000000D+05
12 15  1  1  4  0  0.0 2.579176798460D-04 2.955857780760D-12 0.000000000000D+00
    6.000000000000D+01-9.278125000000D+01 3.913020135850D-09-2.642933596180D+00
   -4.833564162250D-06 5.103631061500D-03 5.746260285380D-06 5.153762161250D+03
    3.600000000000D+05-3.725290298460D-08-1.353512526250D+00-1.583248376850D-07
    9.888172192920D-01 2.809687500000D+02 4.976747885750D-01-7.859970256450D-09
   -2.157232714540D-10 1.000000000000D+00 1.825000000000D+03 0.000000000000D+00
    2.000000000000D+00 0.000000000000D+00-1.210719347000D-08 6.000000000000D+01
    3.600000000000D+05
13 15  1  1  4  0  0.0-7.468089461330D-05-3.410605131650D-12 0.000000000000D+00
    1.500000000000D+01 9.443750000000D+01 4.047668601640D-09-1.472209123190D+00
    4.919245839120D-06 5.863252677950D-03 9.842216968540D-06 5.155889408110D+03
    3.600000000000D+05-1.154839992520D-07 2.900882778650D+00-4.656612873080D-08
    9.757682343320D-01 2.001875000000D+02 2.200504649290D+00-7.797110495230D-09
    9.214669542260D-11 1.000000000000D+00 1.825000000000D+03 0.000000000000D+00
    2.000000000000D+00 0.000000000000D+00-1.117587089540D-08 1.500000000000D+01
    3.600000000000D+05
